SatCatId,ObjectName,LaunchYear,OrbitalPeriod,LaunchMass,StatusCode,Inclination,Status,UcsData,OrbitClassEstimated,LaunchSiteCountry,Owner,UseType,Purpose,LaunchVehicleClass,TLE1,TLE2,MeanMotion,Eccentricity,OrbitClass
55157,ONEWEB-0616,2023,109.29,148.0,+,87.91,Active,1,LEO,USA,UK,Commercial,Communications,Falcon,1 55157U 23004T   25170.47188999 -.00000028  00000+0 -10628-3 0  9993,2 55157  87.9070  78.0746 0001998 109.3376 250.7971 13.17650734119935,13.17650734,0.0001998,LEO
55158,ONEWEB-0617,2023,109.8,148.0,+,87.88,Active,1,LEO,USA,UK,Commercial,Communications,Falcon,1 55158U 23004U   25170.50474114 -.00000500  00000+0 -14456-2 0  9992,2 55158  87.8841  93.3669 0002093  68.5669 291.5682 13.11415905118320,13.11415905,0.0002093,LEO
55159,ONEWEB-0618,2023,98.56,148.0,P,86.91,Active,1,LEO,USA,UK,Commercial,Communications,Falcon,1 55159U 23004V   25170.67965722  .00031515  00000+0  63640-2 0  9998,2 55159  86.9079 321.9404 0015182 166.5546 193.6073 14.61181302127937,14.61181302,0.0015182,LEO
55160,ONEWEB-0619,2023,109.29,148.0,+,87.91,Active,1,LEO,USA,UK,Commercial,Communications,Falcon,1 55160U 23004W   25170.50393238  .00000009  00000+0 -10276-4 0  9993,2 55160  87.9069  78.0462 0001410  74.6009 285.5278 13.17651653119834,13.17651653,0.000141,LEO
55161,ONEWEB-0620,2023,109.81,148.0,+,87.88,Active,1,LEO,USA,UK,Commercial,Communications,Falcon,1 55161U 23004X   25170.49965290 -.00000422  00000+0 -12276-2 0  9995,2 55161  87.8843  93.3880 0002325  70.5685 289.5694 13.11415303118298,13.11415303,0.0002325,LEO
55162,ONEWEB-0621,2023,109.8,148.0,+,87.88,Active,1,LEO,USA,UK,Commercial,Communications,Falcon,1 55162U 23004Y   25170.52679647  .00000089  00000+0  21589-3 0  9993,2 55162  87.8841  93.3393 0001780  74.4589 285.6735 13.11417640118273,13.1141764,0.000178,LEO
55163,ONEWEB-0622,2023,109.8,148.0,+,87.88,Active,1,LEO,USA,UK,Commercial,Communications,Falcon,1 55163U 23004Z   25170.22669761  .00000382  00000+0  10412-2 0  9995,2 55163  87.8841  93.4221 0002193  57.2204 302.9135 13.11417977118222,13.11417977,0.0002193,LEO
55164,ONEWEB-0623,2023,109.29,148.0,+,87.91,Active,1,LEO,USA,UK,Commercial,Communications,Falcon,1 55164U 23004AA  25170.49887888  .00000059  00000+0  11944-3 0  9990,2 55164  87.9070  78.1027 0001700  54.4714 305.6576 13.17651598119821,13.17651598,0.00017,LEO
55165,ONEWEB-0624,2023,109.68,148.0,+,87.89,Active,1,LEO,USA,UK,Commercial,Communications,Falcon,1 55165U 23004AB  25170.43956469  .00000010  00000+0 -88170-5 0  9992,2 55165  87.8888  62.8060 0001820  76.8746 283.2586 13.12941366120476,13.12941366,0.000182,LEO
55166,ONEWEB-0625,2023,109.29,148.0,+,87.91,Active,1,LEO,USA,UK,Commercial,Communications,Falcon,1 55166U 23004AC  25170.26093426 -.00000191  00000+0 -52474-3 0  9996,2 55166  87.9068  78.1477 0001889  83.9509 276.1837 13.17649247119781,13.17649247,0.0001889,LEO
55167,ONEWEB-0626,2023,109.29,148.0,+,87.91,Active,1,LEO,USA,UK,Commercial,Communications,Falcon,1 55167U 23004AD  25170.47862822 -.00000020  00000+0 -85151-4 0  9994,2 55167  87.9070  78.1020 0002517  80.3275 279.8141 13.17649757119817,13.17649757,0.0002517,LEO
55168,ONEWEB-0627,2023,109.29,148.0,+,87.91,Active,1,LEO,USA,UK,Commercial,Communications,Falcon,1 55168U 23004AE  25170.46681748  .00000015  00000+0  59064-5 0  9997,2 55168  87.9069  78.1073 0001893  60.2840 299.8480 13.17648898119818,13.17648898,0.0001893,LEO
55169,ONEWEB-0628,2023,109.72,148.0,+,87.89,Active,1,LEO,USA,UK,Commercial,Communications,Falcon,1 55169U 23004AF  25170.43889134  .00000007  00000+0 -17156-4 0  9991,2 55169  87.8884  62.7906 0001525  57.4181 302.7095 13.12443571120459,13.12443571,0.0001525,LEO
55170,ONEWEB-0629,2023,109.29,-1.0,+,87.91,Active,0,LEO,USA,UK,Unknown,Unknown,Unknown,1 55170U 23004AG  25170.13859937  .00000050  00000+0  95531-4 0  9998,2 55170  87.9087  78.1583 0001545  77.7005 282.4299 13.17650822119778,13.17650822,0.0001545,LEO
55171,ONEWEB-0631,2023,109.2,-1.0,+,87.91,Active,0,LEO,USA,UK,Unknown,Unknown,Unknown,1 55171U 23004AH  25170.41135198 -.00000323  00000+0 -85165-3 0  9992,2 55171  87.9141  47.5210 0002287  72.2079 287.9302 13.18686559121867,13.18686559,0.0002287,LEO
55172,ONEWEB-0709,2023,109.81,-1.0,+,87.88,Active,0,LEO,USA,UK,Unknown,Unknown,Unknown,1 55172U 23004AJ  25170.33689402 -.00000111  00000+0 -35002-3 0  9996,2 55172  87.8839  93.4217 0002910  80.7140 279.4317 13.11414646118322,13.11414646,0.000291,LEO
55173,ONEWEB-0710,2023,109.28,-1.0,+,87.91,Active,0,LEO,USA,UK,Unknown,Unknown,Unknown,1 55173U 23004AK  25170.45665067  .00002209  00000+0  56516-2 0  9991,2 55173  87.9071  78.0999 0001800  72.9286 287.2043 13.17674071119813,13.17674071,0.00018,LEO
55174,ONEWEB-0711,2023,109.8,-1.0,+,87.88,Active,0,LEO,USA,UK,Unknown,Unknown,Unknown,1 55174U 23004AL  25170.53696940  .00000500  00000+0  13751-2 0  9991,2 55174  87.8844  93.3490 0001855  53.4752 306.6547 13.11416985118309,13.11416985,0.0001855,LEO
55175,ONEWEB-0713,2023,109.81,-1.0,+,87.88,Active,0,LEO,USA,UK,Unknown,Unknown,Unknown,1 55175U 23004AM  25170.47932247  .00000277  00000+0  74469-3 0  9993,2 55175  87.8840  93.3687 0001899  69.9145 290.2187 13.11414012118284,13.11414012,0.0001899,LEO
55176,ONEWEB-0715,2023,109.81,-1.0,+,87.88,Active,0,LEO,USA,UK,Unknown,Unknown,Unknown,1 55176U 23004AN  25170.47424197  .00000457  00000+0  12533-2 0  9997,2 55176  87.8842  93.3701 0002339  75.2617 284.8770 13.11415039118320,13.11415039,0.0002339,LEO
55177,ONEWEB-0716,2023,109.29,-1.0,+,87.91,Active,0,LEO,USA,UK,Unknown,Unknown,Unknown,1 55177U 23004AP  25170.44993084 -.00000103  00000+0 -29938-3 0  9999,2 55177  87.9072  78.1010 0001869  84.1797 275.9547 13.17648703119816,13.17648703,0.0001869,LEO
55178,ONEWEB-0717,2023,109.29,-1.0,+,87.91,Active,0,LEO,USA,UK,Unknown,Unknown,Unknown,1 55178U 23004AQ  25170.43306873  .00000075  00000+0  16014-3 0  9990,2 55178  87.9068  78.0632 0002056  55.4500 304.6825 13.17650632119861,13.17650632,0.0002056,LEO
55179,ONEWEB-0719,2023,109.29,-1.0,+,87.91,Active,0,LEO,USA,UK,Unknown,Unknown,Unknown,1 55179U 23004AR  25170.29132667  .00000071  00000+0  15054-3 0  9992,2 55179  87.9067  78.0755 0001730  81.2530 278.8798 13.17651666119796,13.17651666,0.000173,LEO
55239,APSTAR-6E,2023,1436.12,4300.0,P,0.04,Active,1,GSO,PRC,China,Commercial,Communications,Long March,1 55239U 23005A   25170.06136425 -.00000306  00000+0  00000+0 0  9994,2 55239   0.0421 246.8245 0002306 297.8904 238.9201  1.00270194 15043,1.00270194,0.0002306,GEO
55243,SHIYAN-22B (SY-22B),2023,91.89,100.0,+,43.18,Active,1,LEO,PRC,China,Government,Technology Development,Long March,1 55243U 23006B   25170.57517508  .00043172  00000+0  38817-3 0  9999,2 55243  43.1826 208.0712 0024773  45.4373 314.8514 15.67104926136281,15.67104926,0.0024773,LEO
55244,YAOGAN-37,2023,95.01,1000.0,+,43.2,Active,1,LEO,PRC,China,Military,Earth Observation,Long March,1 55244U 23006C   25170.82935817  .00004710  00000+0  25541-3 0  9990,2 55244  43.1980 327.4151 0010225 281.2150  78.7551 15.15599142134877,15.15599142,0.0010225,LEO
55246,LINUSS1,2022,1453.77,-1.0,+,4.48,Active,0,GSO,USA,USA,Unknown,Unknown,Unknown,1 55246U 22144G   25170.79441118 -.00000004  00000+0  00000+0 0  9998,2 55246   4.4890  66.5563 0008273 308.7710 207.6216  0.99054138  8063,0.99054138,0.0008273,GSO
55247,LINUSS2,2022,1453.79,-1.0,+,4.48,Active,0,GSO,USA,USA,Unknown,Unknown,Unknown,1 55247U 22144H   25170.86440056 -.00000043  00000+0  00000+0 0  9990,2 55247   4.4888  66.5439 0007270 316.7764 218.0921  0.99052832  8100,0.99052832,0.000727,GSO
55263,USA 342,2023,1436.12,3200.0,+,0.02,Active,1,GSO,USA,USA,Military,Communications,Falcon,1 55263U 23008A   25170.29371078  .00000150  00000+0  00000+0 0  9990,2 55263   0.0018 187.4386 0000617 183.1641  26.6965  1.00275120  3765,1.0027512,6.17e-05,GEO
55264,LDPE-3A,2023,1440.58,500.0,+,1.29,Active,1,GSO,USA,USA,Military,Technology Development,Falcon,1 55264U 23008B   25170.56086264 -.00000284  00000+0  00000+0 0  9990,2 55264   1.2870  85.7697 0001137  64.3161  66.6641  0.99959496  8183,0.99959496,0.0001137,GSO
55268,NAVSTAR 82 (USA 343),2023,717.96,4352.0,+,55.1,Active,1,MEO,USA,USA,Commercial/Military,Navigation (Global or Regional Positioning),Falcon,1 55268U 23009A   25169.48655714  .00000112  00000+0  00000+0 0  9995,2 55268  55.0961 162.8036 0003574 326.2231  31.4914  2.00568563 17946,2.00568563,0.0003574,MEO
55269,STARLINK-5277,2023,96.11,290.0,+,70.0,Active,1,LEO,USA,USA,Commercial,Communications,Falcon,1 55269U 23010A   25169.91947628  .00000049  00000+0  11897-4 0  9994,2 55269  70.0003 349.5976 0003051 269.4202  90.6607 14.98331181133550,14.98331181,0.0003051,LEO
55271,STARLINK-5306,2023,96.11,290.0,+,70.0,Active,1,LEO,USA,USA,Commercial,Communications,Falcon,1 55271U 23010C   25170.45772968 -.00000855  00000+0 -63883-4 0  9990,2 55271  70.0000 348.2654 0002595 269.8064  90.2798 14.98329449133350,14.98329449,0.0002595,LEO
55272,STARLINK-5310,2023,96.11,290.0,+,70.0,Active,1,LEO,USA,USA,Commercial,Communications,Falcon,1 55272U 23010D   25170.44103356  .00000591  00000+0  57280-4 0  9998,2 55272  69.9998 348.2112 0002714 272.3484  87.7364 14.98328704133354,14.98328704,0.0002714,LEO
55273,STARLINK-5291,2023,96.11,290.0,+,70.0,Active,1,LEO,USA,USA,Commercial,Communications,Falcon,1 55273U 23010E   25170.21571129 -.00000271  00000+0 -14902-4 0  9992,2 55273  69.9997 348.6287 0002456 268.2981  91.7897 14.98330544133014,14.98330544,0.0002456,LEO
55274,STARLINK-5236,2023,96.11,290.0,+,70.0,Active,1,LEO,USA,USA,Commercial,Communications,Falcon,1 55274U 23010F   25170.44498691  .00000074  00000+0  13969-4 0  9991,2 55274  69.9996 328.3534 0003209 264.5300  95.5493 14.98331598133840,14.98331598,0.0003209,LEO
55275,STARLINK-5260,2023,96.11,290.0,+,70.0,Active,1,LEO,USA,USA,Commercial,Communications,Falcon,1 55275U 23010G   25170.43681648 -.00001736  00000+0 -13782-3 0  9997,2 55275  69.9999 328.3281 0001996 241.7608 118.3350 14.98317860133530,14.9831786,0.0001996,LEO
